STARLINK-31788          
1 60055U 24112T   24255.81994802  .00002215  00000+0  77082-4 0  9992
2 60055  53.1609  85.9192 0001127  78.5905 281.5224 15.34227085 15301
STARLINK-31825          
1 60056U 24112U   24255.91667824  .00017402  00000+0  52806-3 0  9995
2 60056  53.1590  85.6304 0001919  81.8931  13.6357 15.34213713 15582
STARLINK-31437          
1 60057U 24112V   24255.85323528 -.00000311  00000+0  19157-5 0  9995
2 60057  53.1615  86.1314 0001025 108.2096 251.9018 15.34227900 15306
STARLINK-11181 [DTC]    
1 60059U 24113A   24256.55349665  .00231739  00000+0  18589-2 0  9990
2 60059  53.1549 348.8224 0001036  96.2812 263.8324 15.69785103 14679
STARLINK-11176 [DTC]    
1 60060U 24113B   24256.54859303  .00195678  00000+0  15744-2 0  9997
2 60060  53.1545 348.7879 0000824  57.7158 302.3940 15.69829011 14457
STARLINK-11167 [DTC]    
1 60061U 24113C   24255.65232003  .00013308  00000+0  11449-3 0  9999
2 60061  53.1545 353.1495 0001273 127.7512 232.3621 15.69717741 14424
STARLINK-11166 [DTC]    
1 60062U 24113D   24256.53878118  .00118413  00000+0  96547-3 0  9996
2 60062  53.1543 348.7209 0001249  71.3203 288.7950 15.69781939 14554
STARLINK-11165 [DTC]    
1 60063U 24113E   24256.53387776  .00175220  00000+0  14166-2 0  9997
2 60063  53.1553 348.6885 0001095  73.0747 287.0390 15.69781336 14456
STARLINK-11169 [DTC]    
1 60064U 24113F   24256.52893997  .00000217  00000+0  66409-5 0  9997
2 60064  53.1562 348.6584 0001302  80.7270 279.3895 15.69748914 14303
STARLINK-11102 [DTC]    
1 60065U 24113G   24256.52405557  .00016769  00000+0  14280-3 0  9996
2 60065  53.1553 348.6248 0001532  78.1437 281.9753 15.69742392 14443
STARLINK-11141 [DTC]    
1 60066U 24113H   24256.51916160  .00039244  00000+0  32678-3 0  9997
2 60066  53.1544 348.5945 0001135  72.5375 287.5767 15.69744377 14560
STARLINK-11153 [DTC]    
1 60067U 24113J   24256.51437024  .00053574  00000+0  44294-3 0  9994
2 60067  53.1552 349.2923 0002501 171.2847 188.8215 15.69776823 14543
STARLINK-11170 [DTC]    
1 60068U 24113K   24256.50945029  .00081845  00000+0  67328-3 0  9998
2 60068  53.1547 349.2632 0001325  68.6165 291.4994 15.69727017 14603
STARLINK-11171 [DTC]    
1 60069U 24113L   24256.50454859 -.00002166  00000+0 -13021-4 0  9998
2 60069  53.1560 349.2294 0002185 142.6646 217.4524 15.69695011 14554
STARLINK-11186 [DTC]    
1 60070U 24113M   24256.56329489  .00003384  00000+0  32764-4 0  9992
2 60070  53.1562 348.8787 0001164  59.1228 300.9905 15.69722212 14661
STARLINK-11184 [DTC]    
1 60071U 24113N   24256.55840683  .00041430  00000+0  34455-3 0  9998
2 60071  53.1568 348.8826 0001233 121.4820 238.6318 15.69749704 14503
STARLINK-32032          
1 60077U 24113U   24256.53652267  .00020265  00000+0  51536-3 0  9993
2 60077  53.1597   5.3591 0002252  65.2506 294.8733 15.39612700 14421
STARLINK-31441          
1 60091U 24117A   24256.57136759  .00005061  00000+0  18292-3 0  9999
2 60091  53.1629  39.7769 0001175 101.6274 258.4858 15.30195233 13488
STARLINK-32044          
1 60092U 24117B   24256.55132483 -.00004707  00000+0 -14696-3 0  9990
2 60092  53.1620  39.6571 0001438  87.8167 272.2998 15.30182707 13535
STARLINK-31239          
1 60093U 24117C   24255.68968148  .00002444  00000+0  94630-4 0  9990
2 60093  53.1628  44.2345 0001172  78.7958 281.3174 15.30191845 13593
STARLINK-32007          
1 60094U 24117D   24256.39442425  .00011293  00000+0  39266-3 0  9990
2 60094  53.1620  40.8091 0001062  86.7626 273.3496 15.30213669 13503
STARLINK-32028          
1 60095U 24117E   24255.73179832 -.00001423  00000+0 -35969-4 0  9990
2 60095  53.1627  43.7824 0001286 101.9036 258.2109 15.30176786 13602
STARLINK-32016          
1 60096U 24117F   24256.40392486  .00000809  00000+0  39442-4 0  9993
2 60096  53.1617  40.8706 0001176  76.3733 283.7399 15.30190135 13648
STARLINK-32003          
1 60097U 24117G   24256.56716543 -.00002771  00000+0 -81510-4 0  9990
2 60097  53.1607  39.7553 0001010  96.1805 263.9311 15.30180734 13707
STARLINK-32026          
1 60098U 24117H   24255.79286316  .00004428  00000+0  16151-3 0  9992
2 60098  53.1618  43.4528 0001210  92.4348 267.6792 15.30206224 13614
STARLINK-31732          
1 60099U 24117J   24256.54393474  .00002508  00000+0  96789-4 0  9994
2 60099  53.1637  39.6101 0001305  57.7473 302.3654 15.30193395 13683
STARLINK-31996          
1 60100U 24117K   24256.55766854 -.00001834  00000+0 -49835-4 0  9997
2 60100  53.1631  39.6941 0001238  71.3572 288.7563 15.30181995 13587
STARLINK-31999          
1 60101U 24117L   24256.40708984  .00030425  00000+0  10341-2 0  9996
2 60101  53.1623  40.8917 0001511  80.4306 279.6865 15.30233249 13658
STARLINK-31954          
1 60102U 24117M   24256.40076054  .00017192  00000+0  59095-3 0  9999
2 60102  53.1624  40.8489 0001596  86.1237 273.9946 15.30215158 13457
STARLINK-32013          
1 60103U 24117N   24256.39758100  .00004588  00000+0  16684-3 0  9999
2 60103  53.1627  40.8266 0000822  84.2095 275.8999 15.30217828 13653
STARLINK-32009          
1 60104U 24117P   24256.41024875  .00000537  00000+0  30257-4 0  9991
2 60104  53.1631  40.8852 0001168  65.2611 294.8511 15.30199241 13713
STARLINK-32018          
1 60105U 24117Q   24256.38808723  .00001937  00000+0  77471-4 0  9994
2 60105  53.1617  40.7686 0001069  75.0436 285.0683 15.30210855 13724
STARLINK-32045          
1 60106U 24117R   24255.80342739  .00000676  00000+0  34965-4 0  9991
2 60106  53.1625  43.5179 0001280  88.0265 272.0882 15.30198122 13618
STARLINK-32035          
1 60107U 24117S   24256.57348746 -.00005435  00000+0 -17147-3 0  9993
2 60107  53.1612  39.7936 0001349  42.7744 317.3361 15.30203526 13685
STARLINK-32042          
1 60108U 24117T   24255.91084520  .00001682  00000+0  68918-4 0  9999
2 60108  53.1628  42.7679 0001173  70.4363 289.6764 15.30186217 13541
STARLINK-32040          
1 60109U 24117U   24256.57033661 -.00002264  00000+0 -64402-4 0  9996
2 60109  53.1625  39.7729 0000935  61.5710 298.5385 15.30175109 13684
STARLINK-32001          
1 60110U 24117V   24255.83602990  .00000590  00000+0  32034-4 0  9997
2 60110  53.1611  43.0113 0000915  75.0496 285.0606 15.30216591 13627
STARLINK-32015          
1 60111U 24117W   24256.54815814  .00029934  00000+0  10177-2 0  9993
2 60111  53.1614  39.6304 0001388  58.3511 301.7625 15.30232185 13580
STARLINK-32024          
1 60112U 24117X   24256.56084519 -.00004772  00000+0 -14915-3 0  9996
2 60112  53.1632  39.7106 0001439  61.4311 298.6835 15.30185159 13701
STARLINK-11201 [DTC]    
1 60113U 24118A   24255.66461760  .00041592  00000+0  34616-3 0  9994
2 60113  53.1544  23.4341 0001478  50.3804 309.7344 15.69729335 12544
STARLINK-11198 [DTC]    
1 60114U 24118B   24255.65971273  .00114013  00000+0  93215-3 0  9998
2 60114  53.1555  23.4006 0001777  51.6185 308.4992 15.69732718 12547
STARLINK-11112 [DTC]    
1 60115U 24118C   24256.54616757  .00042368  00000+0  35215-3 0  9990
2 60115  53.1552  18.9756 0001195  99.1863 260.9290 15.69753280 13787
STARLINK-11210 [DTC]    
1 60116U 24118D   24256.54126388  .00140215  00000+0  11385-2 0  9998
2 60116  53.1555  18.9428 0000968  66.6098 293.5021 15.69799700 13560
STARLINK-11203 [DTC]    
1 60117U 24118E   24256.53635594  .00115725  00000+0  94540-3 0  9995
2 60117  53.1553  18.9088 0000813 114.7340 245.3762 15.69745367 13720
STARLINK-11177 [DTC]    
1 60118U 24118F   24256.53145010  .00249770  00000+0  19935-2 0  9997
2 60118  53.1544  18.8761 0001639 153.9700 206.1401 15.69849128 13736
STARLINK-11127 [DTC]    
1 60119U 24118G   24256.52654690  .00194075  00000+0  15671-2 0  9996
2 60119  53.1550  18.8425 0001176 120.4715 239.6419 15.69747983 13569
STARLINK-11164 [DTC]    
1 60120U 24118H   24255.63026646  .00001707  00000+0  18950-4 0  9997
2 60120  53.1570  23.2027 0001449 132.6709 227.4431 15.69711800 13650
STARLINK-11119 [DTC]    
1 60121U 24118J   24256.50692379  .00176188  00000+0  14226-2 0  9993
2 60121  53.1552  18.7160 0000993 131.9757 228.1345 15.69809059 13720
STARLINK-11157 [DTC]    
1 60122U 24118K   24256.51182736  .00030424  00000+0  25480-3 0  9993
2 60122  53.1557  18.7472 0000600 109.6815 250.4267 15.69734497 13469
STARLINK-11162 [DTC]    
1 60123U 24118L   24256.50201773  .00073436  00000+0  60475-3 0  9999
2 60123  53.1549  18.6812 0001158 110.4981 249.6161 15.69745697 13402
STARLINK-11161 [DTC]    
1 60124U 24118M   24255.60584995  .00027530  00000+0  23101-3 0  9999
2 60124  53.1537  23.7803 0000493  93.9908 266.1166 15.69743441 13574
STARLINK-11160 [DTC]    
1 60125U 24118N   24256.51673294  .00244301  00000+0  19516-2 0  9993
2 60125  53.1539  18.7783 0001302 153.6468 206.4616 15.69844820 13786
STARLINK-31846          
1 60126U 24118P   24256.35825445  .00024651  00000+0  62375-3 0  9999
2 60126  53.1585  35.1532 0001755  57.6698 302.4476 15.39644311 13548
STARLINK-31840          
1 60127U 24118Q   24256.37649157  .00039332  00000+0  98677-3 0  9992
2 60127  53.1606  35.2609 0001130 102.0184 258.0948 15.39664440 13489
STARLINK-31813          
1 60128U 24118R   24255.78299542  .00032067  00000+0  80983-3 0  9995
2 60128  53.1604  37.9568 0001583  83.2275 276.8910 15.39561786 12355
STARLINK-31845          
1 60129U 24118S   24256.39064584 -.00000043  00000+0  89037-5 0  9991
2 60129  53.1612  34.6387 0001004  62.5774 297.5332 15.39638981 13485
STARLINK-31838          
1 60130U 24118T   24256.52944736 -.00010119  00000+0 -24352-3 0  9997
2 60130  53.1595  34.0862 0001508  65.5843 294.5319 15.39594189 13504
STARLINK-31785          
1 60131U 24118U   24256.54370916 -.00018606  00000+0 -45657-3 0  9993
2 60131  53.1594  34.1719 0001423  57.4651 302.6491 15.39602191 13504
STARLINK-31792          
1 60132U 24118V   24256.52440550  .00007411  00000+0  19512-3 0  9995
2 60132  53.1604  31.1628 0001649  72.9832 287.1353 15.39614571 13550
